GLOBALSTAR M068         
1 32266U 07048D   25287.76899628 -.00000047  00000+0  31603-3 0  9994
2 32266  51.9885 297.7303 0001291  47.8713 122.9714 12.62830907832660
GLOBALSTAR M079         
1 37188U 10054A   25287.91930598 -.00000101  00000+0  17378-4 0  9997
2 37188  52.0016 135.3029 0000877 102.8801  31.7745 12.62267850691572
GLOBALSTAR M074         
1 37189U 10054B   25287.32031306 -.00000103  00000+0  31207-5 0  9992
2 37189  51.9994 136.4307 0000789  81.0890  89.8388 12.62272469692104
GLOBALSTAR M076         
1 37190U 10054C   25287.55078991 -.00000089  00000+0  82608-4 0  9993
2 37190  52.0007 135.9120 0000615  95.6756 282.3342 12.62266380691856
GLOBALSTAR M077         
1 37191U 10054D   25287.94331944 -.00000083  00000+0  10046-3 0  9997
2 37191  52.0055  93.7762 0001999  35.6813  60.1132 12.36452495692256
GLOBALSTAR M075         
1 37192U 10054E   25287.95850878 -.00000094  00000+0  52049-4 0  9993
2 37192  51.9934 176.8602 0000800  73.3326 299.3368 12.62268800690973
GLOBALSTAR M073         
1 37193U 10054F   25287.91122039 -.00000095  00000+0  47699-4 0  9997
2 37193  52.0046  90.9128 0000810 110.2628  46.5274 12.62263582692956
GLOBALSTAR M083         
1 37739U 11033A   25287.57561279 -.00000091  00000+0  71823-4 0  9998
2 37739  51.9875  40.4992 0000785 116.1349 256.4533 12.62276790661934
GLOBALSTAR M088         
1 37740U 11033B   25287.82183419 -.00000075  00000+0  15979-3 0  9995
2 37740  52.0218 305.5878 0000434  76.4120  94.1610 12.62268812657500
GLOBALSTAR M091         
1 37741U 11033C   25287.67670086 -.00000079  00000+0  13771-3 0  9992
2 37741  51.9989 269.3552 0000583  79.4044  92.0798 12.62260531658272
GLOBALSTAR M085         
1 37742U 11033D   25287.58427377 -.00000083  00000+0  11693-3 0  9992
2 37742  52.0119 220.7139 0000783  80.4254  90.7083 12.62265624658774
GLOBALSTAR M081         
1 37743U 11033E   25287.81459539 -.00000095  00000+0  47720-4 0  9998
2 37743  51.9952 222.7286 0000537  80.8024 297.0876 12.62269169658959
GLOBALSTAR M089         
1 37744U 11033F   25287.69579991 -.00000096  00000+0  44999-4 0  9996
2 37744  51.9920 177.2963 0000641  56.5665 321.9479 12.62267883659787
GLOBALSTAR M084         
1 38040U 11080A   25287.73751682 -.00000100  00000+0  22105-4 0  9993
2 38040  52.0026  44.5167 0000349 101.6808  46.2539 12.62269383637769
GLOBALSTAR M080         
1 38041U 11080B   25287.60037894 -.00000102  00000+0  10191-4 0  9996
2 38041  52.0076  46.5679 0001124  93.6300 280.0592 12.62269593637876
GLOBALSTAR M082         
1 38042U 11080C   25287.96695925 -.00000081  00000+0  12980-3 0  9994
2 38042  52.0106   0.9286 0000842 102.5108  68.4582 12.62263734638623
GLOBALSTAR M092         
1 38043U 11080D   25287.93989928 -.00000093  00000+0  60014-4 0  9996
2 38043  52.0066  91.3926 0000844  93.4820  73.4988 12.62266957637079
GLOBALSTAR M090         
1 38044U 11080E   25287.91424406 -.00000081  00000+0  12575-3 0  9995
2 38044  52.0149 354.9665 0000591 118.3430  52.1075 12.62262825638738
GLOBALSTAR M086         
1 38045U 11080F   25287.52937597 -.00000080  00000+0  13052-3 0  9993
2 38045  51.9925 356.4671 0000885 196.7701 270.0042 12.62278093638638
GLOBALSTAR M097         
1 39072U 13005A   25287.92931452 -.00000087  00000+0  91353-4 0  9999
2 39072  52.0043 269.9239 0000403  92.3981 267.6932 12.62266465585931
GLOBALSTAR M093         
1 39073U 13005B   25287.90330518 -.00000076  00000+0  15322-3 0  9993
2 39073  52.0095 263.2567 0000524 109.6338 250.4586 12.62265289585884
GLOBALSTAR M094         
1 39074U 13005C   25287.42788502 -.00000095  00000+0  50040-4 0  9999
2 39074  51.9948 179.0643 0000794  90.3358 269.7600 12.62264299587439
GLOBALSTAR M096         
1 39075U 13005D   25287.83701012 -.00000089  00000+0  84952-4 0  9998
2 39075  52.0065 226.4256 0000689  85.5025 274.5921 12.62267586586407
GLOBALSTAR M078         
1 39076U 13005E   25287.81106653 -.00000065  00000+0  21591-3 0  9990
2 39076  51.9878 310.8572 0001272  85.5175 274.5837 12.62261242585028
GLOBALSTAR M095         
1 39077U 13005F   25287.44114752 -.00000079  00000+0  13597-3 0  9991
2 39077  52.0084 309.2375 0000808 108.0039 252.0916 12.62260745584831
GLOBALSTAR M087         
1 52888U 22064A   25287.85030793 -.00000094  00000+0  56589-4 0  9994
2 52888  51.9982  89.3665 0001015 106.1096 253.9882 12.62289347160158
